[
    {
        "ServiceType": "HospitalsAndUrgentCare",
        "Provider": "United Healthcare 003",
        "ResourceName": "SSM Health",
        "Street": "1027 Bellevue Ave Fl 4",
        "City": "St. Louis ",
        "State": "MO",
        "ZipCode": "63117"
    },
    {
        "ServiceType": "HospitalsAndUrgentCare",
        "Provider": "United Healthcare 003",
        "ResourceName": "SSM Health SLU Hospital",
        "Street": "1201 S Grand Blvd",
        "City": "St. Louis ",
        "State": "MO",
        "ZipCode": "63104"
    },
    {
        "ServiceType": "HospitalsAndUrgentCare",
        "Provider": "United Healthcare 003",
        "ResourceName": "Mercy Hospital St Louis",
        "Street": "6435 Chippewa St",
        "City": "St. Louis ",
        "State": "MO",
        "ZipCode": "63109"
    },
    {
        "ServiceType": "HospitalsAndUrgentCare",
        "Provider": "United Healthcare 003",
        "ResourceName": "Total Access Urgent Care",
        "Street": "1005 S Big Bend Ave",
        "City": "St. Louis ",
        "State": "MO",
        "ZipCode": "63117"
    },
    {
        "ServiceType": "HospitalsAndUrgentCare",
        "Provider": "United Healthcare 003",
        "ResourceName": "SSM Health Urgent Care",
        "Street": "6420 Clayton Rd",
        "City": "St. Louis ",
        "State": "MO",
        "ZipCode": "63117"
    },
    {
        "ServiceType": "HospitalsAndUrgentCare",
        "Provider": "Essence Advantage HMO",
        "ResourceName": "Accuhealth Urgent Care",
        "Street": "8612 Olive Blvd",
        "City": "St. Louis ",
        "State": "MO",
        "ZipCode": "63132"
    },
    {
        "ServiceType": "HospitalsAndUrgentCare",
        "Provider": "Essence Advantage HMO",
        "ResourceName": "Total Access Urgent Care",
        "Street": "1005 S Big Bend Ave",
        "City": "St. Louis ",
        "State": "MO",
        "ZipCode": "63117"
    },
    {
        "ServiceType": "HospitalsAndUrgentCare",
        "Provider": "Essence Advantage HMO",
        "ResourceName": "SSM Health St Mary’s",
        "Street": "6420 Clayton Rd",
        "City": "Richmond Heights ",
        "State": "MO",
        "ZipCode": "63117"
    },
    {
        "ServiceType": "HospitalsAndUrgentCare",
        "Provider": "Essence Advantage HMO",
        "ResourceName": "Barnes Jewish Hospital",
        "Street": "1 Barnes Jewish Hospital Plz",
        "City": "St. Louis ",
        "State": "MO",
        "ZipCode": "63110"
    },
    {
        "ServiceType": "HospitalsAndUrgentCare",
        "Provider": "Essence Advantage HMO",
        "ResourceName": "SSM Health SLU Hospital",
        "Street": "1201 S Grand Blvd",
        "City": "St. Louis ",
        "State": "MO",
        "ZipCode": "63104"
    },
    {
        "ServiceType": "HospitalsAndUrgentCare",
        "Provider": "Aetna",
        "ResourceName": "Mercy Urgent Care",
        "Street": "8321 Maryland Avenue",
        "City": "Clayton",
        "State": "MO",
        "ZipCode": "63105"
    },
    {
        "ServiceType": "HospitalsAndUrgentCare",
        "Provider": "Aetna",
        "ResourceName": "Mercy Urgent Care",
        "Street": "2015 Maplewood Commons Drive",
        "City": "St. Louis ",
        "State": "MO",
        "ZipCode": "63143"
    },
    {
        "ServiceType": "HospitalsAndUrgentCare",
        "Provider": "Aetna",
        "ResourceName": "CenterPointe Hospital ",
        "Street": "11477 Olde Cabin Road Suite 205",
        "City": "St. Louis ",
        "State": "MO",
        "ZipCode": "63141"
    },
    {
        "ServiceType": "HospitalsAndUrgentCare",
        "Provider": "Aetna",
        "ResourceName": "Barnes Jewish Hospital",
        "Street": "1 Barnes Jewish Hospital Plz",
        "City": "St. Louis ",
        "State": "MO",
        "ZipCode": "63110"
    },
    {
        "ServiceType": "HospitalsAndUrgentCare",
        "Provider": "Aetna",
        "ResourceName": "SSM Health St Mary’s",
        "Street": "6420 Clayton Rd",
        "City": "Richmond Heights ",
        "State": "MO",
        "ZipCode": "63117"
    },
    {
        "ServiceType": "HospitalsAndUrgentCare",
        "Provider": "Humana",
        "ResourceName": "SSM Health Care St Louis St Joseph Hospital",
        "Street": "1031 Bellevue Ave Ste 400",
        "City": "St. Louis ",
        "State": "MO",
        "ZipCode": "63117"
    },
    {
        "ServiceType": "HospitalsAndUrgentCare",
        "Provider": "Humana",
        "ResourceName": "SSM Health St Mary’s",
        "Street": "6420 Clayton Rd",
        "City": "Richmond Heights ",
        "State": "MO",
        "ZipCode": "63117"
    },
    {
        "ServiceType": "HospitalsAndUrgentCare",
        "Provider": "Humana",
        "ResourceName": "Washington University School of Medicine",
        "Street": "216 S Kingshighway Blvd, Fl 6",
        "City": "St. Louis ",
        "State": "MO",
        "ZipCode": "63110"
    },
    {
        "ServiceType": "HospitalsAndUrgentCare",
        "Provider": "Humana",
        "ResourceName": "Care STL Health",
        "Street": "5471 Dr Martin Luther King Dr",
        "City": "St. Louis ",
        "State": "MO",
        "ZipCode": "63112"
    },
    {
        "ServiceType": "HospitalsAndUrgentCare",
        "Provider": "Anthem",
        "ResourceName": "SSM Health St Mary’s",
        "Street": "6420 Clayton Rd",
        "City": "Richmond Heights ",
        "State": "MO",
        "ZipCode": "63117"
    },
    {
        "ServiceType": "HospitalsAndUrgentCare",
        "Provider": "Anthem",
        "ResourceName": "Barnes Jewish Hospital",
        "Street": "1 Barnes Jewish Hospital Plz",
        "City": "St. Louis ",
        "State": "MO",
        "ZipCode": "63110"
    },
    {
        "ServiceType": "HospitalsAndUrgentCare",
        "Provider": "Anthem",
        "ResourceName": "SSM Health SLU Hospital",
        "Street": "1201 S Grand Blvd",
        "City": "St. Louis ",
        "State": "MO",
        "ZipCode": "63104"
    },
    {
        "ServiceType": "HospitalsAndUrgentCare",
        "Provider": "Anthem",
        "ResourceName": "Missouri Baptist Medical Center",
        "Street": "9450 Manchester Rd",
        "City": "St. Louis ",
        "State": "MO",
        "ZipCode": "63119"
    },
    {
        "ServiceType": "HospitalsAndUrgentCare",
        "Provider": "Anthem",
        "ResourceName": "St. Luke’s Urgent Care Center ",
        "Street": "8857 Ladue Rd Ste A ",
        "City": "St. Louis ",
        "State": "MO",
        "ZipCode": "63124"
    },
    {
        "ServiceType": "CommunityEngagement",
        "Provider": "All",
        "ResourceName": "Planet Fitness Central West End ",
        "Street": "4061 Lindell Blvd",
        "City": "St. Louis",
        "State": "MO",
        "ZipCode": "63108"
    },
    {
        "ServiceType": "CommunityEngagement",
        "Provider": "All",
        "ResourceName": "St Louis Workout",
        "Street": "245 Union Blvd",
        "City": "St. Louis",
        "State": "MO",
        "ZipCode": "63109"
    },
    {
        "ServiceType": "CommunityEngagement",
        "Provider": "All",
        "ResourceName": "Club Fitness Maplewood",
        "Street": "3256 Laclede Station Road",
        "City": "Maplewood",
        "State": "MO",
        "ZipCode": "63143"
    },
    {
        "ServiceType": "CommunityEngagement",
        "Provider": "All",
        "ResourceName": "Fit City ",
        "Street": "1601 S Jefferson Ave",
        "City": "St. Louis",
        "State": "MO",
        "ZipCode": "63104"
    },
    {
        "ServiceType": "CommunityEngagement",
        "Provider": "All",
        "ResourceName": "Bayer YMCA",
        "Street": "5555 Page Blvd",
        "City": "St. Louis",
        "State": "MO",
        "ZipCode": "63112"
    },
    {
        "ServiceType": "CommunityEngagement",
        "Provider": "All",
        "ResourceName": "City Seniors Inc",
        "Street": "4705 Ridgewood",
        "City": "St. Louis",
        "State": "MO",
        "ZipCode": "63116"
    },
    {
        "ServiceType": "CommunityEngagement",
        "Provider": "All",
        "ResourceName": "Robert Fulton Senior Center",
        "Street": "5521 Wells",
        "City": "St. Louis",
        "State": "MO",
        "ZipCode": "63112"
    },
    {
        "ServiceType": "CommunityEngagement",
        "Provider": "All",
        "ResourceName": "St. Louis Activity Senior Center",
        "Street": "5602 Arsenal Street",
        "City": "St. Louis",
        "State": "MO",
        "ZipCode": "63139"
    },
    {
        "ServiceType": "MentalHealth",
        "Provider": "Essence Advantage HMO",
        "ResourceName": "St Louis Center for Cognitive Health",
        "Street": "7711 Bonhomme Ave Ste 350",
        "City": "St. Louis",
        "State": "MO",
        "ZipCode": "63105"
    },
    {
        "ServiceType": "MentalHealth",
        "Provider": "Essence Advantage HMO",
        "ResourceName": "Sonder Counseling LLC",
        "Street": "230 Bemistone Ave Ste 1006",
        "City": "St. Louis",
        "State": "MO",
        "ZipCode": "63105"
    },
    {
        "ServiceType": "MentalHealth",
        "Provider": "Essence Advantage HMO",
        "ResourceName": "Emergence Psychological Services",
        "Street": "8000 Bonhomme Ave Suite 315",
        "City": "St. Louis",
        "State": "MO",
        "ZipCode": "63105"
    },
    {
        "ServiceType": "MentalHealth",
        "Provider": "Aetna",
        "ResourceName": "St. Louis Behavioral Medicine Institute",
        "Street": "1129 Macklind Avenue",
        "City": "St. Louis",
        "State": "MO",
        "ZipCode": "63110"
    },
    {
        "ServiceType": "MentalHealth",
        "Provider": "Aetna",
        "ResourceName": "SLU University Hospital",
        "Street": "1201 South Grand Blvd",
        "City": "St. Louis",
        "State": "MO",
        "ZipCode": "63110"
    },
    {
        "ServiceType": "MentalHealth",
        "Provider": "Aetna",
        "ResourceName": "Provident Behavioral Health",
        "Street": "2650 Olive Street",
        "City": "St. Louis",
        "State": "MO",
        "ZipCode": "63103"
    },
    {
        "ServiceType": "MentalHealth",
        "Provider": "Aetna",
        "ResourceName": "Therapeutic Solutions LLC",
        "Street": "680 Craig Road Suite 103",
        "City": "Creve Couer",
        "State": "MO",
        "ZipCode": "63141"
    },
    {
        "ServiceType": "MentalHealth",
        "Provider": "Aetna",
        "ResourceName": "Maryland Heights Center for Behavioral Health LLC",
        "Street": "11100 Ayrshire Drive",
        "City": "Maryland Heights",
        "State": "MO",
        "ZipCode": "63043"
    },
    {
        "ServiceType": "MentalHealth",
        "Provider": "Humana",
        "ResourceName": "Mercy Clinic Adult Psychiatry LLC",
        "Street": "1176 Town and Country Commons Dr",
        "City": "Chesterfield",
        "State": "MO",
        "ZipCode": "63017"
    },
    {
        "ServiceType": "MentalHealth",
        "Provider": "Humana",
        "ResourceName": "MID America Psychiatric Consultants LLC",
        "Street": "6651 Chippewa St",
        "City": "St. Louis",
        "State": "MO",
        "ZipCode": "63109"
    },
    {
        "ServiceType": "MentalHealth",
        "Provider": "Humana",
        "ResourceName": "Success Health System LLC",
        "Street": "3334 S Grand Blvd",
        "City": "St. Louis",
        "State": "MO",
        "ZipCode": "63118"
    },
    {
        "ServiceType": "MentalHealth",
        "Provider": "Anthem",
        "ResourceName": "St Louis Center for Cognitive Health",
        "Street": "7711 Bonhomme Ave Ste 350",
        "City": "St. Louis",
        "State": "MO",
        "ZipCode": "63105"
    },
    {
        "ServiceType": "MentalHealth",
        "Provider": "Anthem",
        "ResourceName": "Elemy",
        "Street": "7777 Bonhomme Ave Ste 1800",
        "City": "St. Louis",
        "State": "MO",
        "ZipCode": "63105"
    },
    {
        "ServiceType": "MentalHealth",
        "Provider": "Anthem",
        "ResourceName": "Wellness Alliance Counseling and Psychotherapy ",
        "Street": "7710 Carondelet Ave Ste 304",
        "City": "St. Louis",
        "State": "MO",
        "ZipCode": "63106"
    },
    {
        "ServiceType": "MentalHealth",
        "Provider": "Anthem",
        "ResourceName": "Sonder Counseling LLC",
        "Street": "230 Bemistone Ave Ste 1006",
        "City": "St. Louis",
        "State": "MO",
        "ZipCode": "63105"
    },
    {
        "ServiceType": "PharmaciesAndTesting",
        "Provider": "United Healthcare 003",
        "ResourceName": "CVS MinuteClinic ",
        "Street": "8101 Clayton Rd",
        "City": "St. Louis",
        "State": "MO",
        "ZipCode": "63117",
        "": ""
    },
    {
        "ServiceType": "PharmaciesAndTesting",
        "Provider": "United Healthcare 003",
        "ResourceName": "SSM Health Express Clinic",
        "Street": "13992 Manchester Rd",
        "City": "Ballwin",
        "State": "MO",
        "ZipCode": "63011",
        "": ""
    },
    {
        "ServiceType": "PharmaciesAndTesting",
        "Provider": "United Healthcare 003",
        "ResourceName": "National Services - Pharmacy ",
        "Street": "",
        "City": "",
        "State": "",
        "ZipCode": "",
        "": ""
    },
    {
        "ServiceType": "PharmaciesAndTesting",
        "Provider": "Essence Advantage HMO",
        "ResourceName": "Millbrook Pharmacy",
        "Street": "7010 Pershing Ave",
        "City": "St. Louis",
        "State": "MO",
        "ZipCode": "63130",
        "": ""
    },
    {
        "ServiceType": "PharmaciesAndTesting",
        "Provider": "Essence Advantage HMO",
        "ResourceName": "Quadrangle Pharamacy LLC",
        "Street": "6643 Shepley Dr ",
        "City": "St. Louis",
        "State": "MO",
        "ZipCode": "63105",
        "": ""
    },
    {
        "ServiceType": "PharmaciesAndTesting",
        "Provider": "Essence Advantage HMO",
        "ResourceName": "Medical Arts Clayton Pharmacy",
        "Street": "7710 Carondelet Ave Ste 125",
        "City": "St. Louis",
        "State": "MO",
        "ZipCode": "63105",
        "": ""
    },
    {
        "ServiceType": "PharmaciesAndTesting",
        "Provider": "Essence Advantage HMO",
        "ResourceName": "Walmart Pharmacy",
        "Street": "1900 Maplewood Commons Dr",
        "City": "St. Louis",
        "State": "MO",
        "ZipCode": "63143",
        "": ""
    },
    {
        "ServiceType": "PharmaciesAndTesting",
        "Provider": "Essence Advantage HMO",
        "ResourceName": "Mercy Pharmacy",
        "Street": "8450 Eager Rd",
        "City": "St. Louis",
        "State": "MO",
        "ZipCode": "63144",
        "": ""
    },
    {
        "ServiceType": "PharmaciesAndTesting",
        "Provider": "Aetna",
        "ResourceName": "CVS Pharmacy",
        "Street": "6211 Delmar Blvd",
        "City": "St. Louis",
        "State": "MO",
        "ZipCode": "63130",
        "": ""
    },
    {
        "ServiceType": "PharmaciesAndTesting",
        "Provider": "Aetna",
        "ResourceName": "CVS Pharmacy",
        "Street": "8101 Clayton Rd",
        "City": "Clayton",
        "State": "MO",
        "ZipCode": "63117",
        "": ""
    },
    {
        "ServiceType": "PharmaciesAndTesting",
        "Provider": "Aetna",
        "ResourceName": "CVS Pharmacy",
        "Street": "7470 Manchester Rd",
        "City": "Maplewood",
        "State": "MO",
        "ZipCode": "63143",
        "": ""
    },
    {
        "ServiceType": "PharmaciesAndTesting",
        "Provider": "Aetna",
        "ResourceName": "CVS Pharmacy",
        "Street": "8867 Ladue Rd",
        "City": "St. Louis",
        "State": "MO",
        "ZipCode": "63124",
        "": ""
    },
    {
        "ServiceType": "PharmaciesAndTesting",
        "Provider": "Aetna",
        "ResourceName": "Mercy Pharmacy",
        "Street": "8450 Eager Rd",
        "City": "St. Louis",
        "State": "MO",
        "ZipCode": "63144",
        "": ""
    },
    {
        "ServiceType": "PharmaciesAndTesting",
        "Provider": "Humana",
        "ResourceName": "Millbrook Pharmacy",
        "Street": "7010 Pershing Ave",
        "City": "St. Louis",
        "State": "MO",
        "ZipCode": "63130",
        "": ""
    },
    {
        "ServiceType": "PharmaciesAndTesting",
        "Provider": "Humana",
        "ResourceName": "Costco Pharmacy",
        "Street": "8685 Olive Blvd",
        "City": "University City",
        "State": "MO",
        "ZipCode": "63132",
        "": ""
    },
    {
        "ServiceType": "PharmaciesAndTesting",
        "Provider": "Humana",
        "ResourceName": "BJC Home Care Services Pharmacy",
        "Street": "1935 Belt Way",
        "City": "St. Louis",
        "State": "MO",
        "ZipCode": "63114",
        "": ""
    },
    {
        "ServiceType": "PharmaciesAndTesting",
        "Provider": "Humana",
        "ResourceName": "Peoples Health Center Pharmacy",
        "Street": "5701 Delmar Blvd",
        "City": "St. Louis",
        "State": "MO",
        "ZipCode": "63112",
        "": ""
    },
    {
        "ServiceType": "PharmaciesAndTesting",
        "Provider": "Humana",
        "ResourceName": "SSM Health Pharmacy",
        "Street": "1035 Bellevue Ave",
        "City": "St. Louis",
        "State": "MO",
        "ZipCode": "63117",
        "": ""
    },
    {
        "ServiceType": "PharmaciesAndTesting",
        "Provider": "Anthem",
        "ResourceName": "Coram CVS/Specialty Infusion Services",
        "Street": "8248 Lackland Rd Ste 101",
        "City": "St. Louis",
        "State": "MO",
        "ZipCode": "63114",
        "": ""
    },
    {
        "ServiceType": "PharmaciesAndTesting",
        "Provider": "Anthem",
        "ResourceName": "Option Care",
        "Street": "535 Axminister Dr",
        "City": "Fenton",
        "State": "MO",
        "ZipCode": "63026",
        "": ""
    },
    {
        "ServiceType": "PharmaciesAndTesting",
        "Provider": "Anthem",
        "ResourceName": "BJC Home Care Services Pharmacy",
        "Street": "1935 Belt Way",
        "City": "St. Louis",
        "State": "MO",
        "ZipCode": "63114",
        "": ""
    },
    {
        "ServiceType": "PharmaciesAndTesting",
        "Provider": "Anthem",
        "ResourceName": "Optum Infusion Services 501 Inc",
        "Street": "1867 Lackland Hill Pkwy ",
        "City": "St. Louis",
        "State": "MO",
        "ZipCode": "63146"
    }
]